IRIDIUM 126             
1 42809U 17039G   25349.30859914  .00000393  00000+0  13324-3 0  9995
2 42809  86.3967  70.5121 0001899  99.7203 260.4207 14.34217562443598
IRIDIUM 124             
1 42810U 17039H   25349.11767668  .00000378  00000+0  10631-3 0  9991
2 42810  86.4492   7.3132 0002316  97.3014 262.8451 14.43278725448560
IRIDIUM 128             
1 42811U 17039J   25349.36910686 -.00000026  00000+0 -16314-4 0  9996
2 42811  86.3966 102.0208 0002372  98.8288 261.3177 14.34216941443638
IRIDIUM 121             
1 42812U 17039K   25349.18809080 -.00000070  00000+0 -32028-4 0  9991
2 42812  86.3963  70.5887 0002126  95.0532 265.0906 14.34217166443457
IRIDIUM 133             
1 42955U 17061A   25349.33106086  .00000324  00000+0  10855-3 0  9990
2 42955  86.3968 102.1499 0002106  97.7426 262.4009 14.34218501428429
IRIDIUM 100             
1 42956U 17061B   25349.32470493 -.00000007  00000+0 -94378-5 0  9990
2 42956  86.3965 102.0755 0001956  99.3872 260.7545 14.34215934428429
IRIDIUM 122             
1 42957U 17061C   25349.36276047  .00000067  00000+0  16978-4 0  9997
2 42957  86.3960 102.0596 0001950  98.5380 261.6037 14.34218514428431
IRIDIUM 129             
1 42958U 17061D   25349.31836465  .00000137  00000+0  41980-4 0  9998
2 42958  86.3967 102.1429 0001773  88.0163 272.1236 14.34217271428449
